{"type": "FeatureCollection", "features": [ {"type": "Feature", "properties": {"norad_id": 66052, "name": "HRC MONOBLOCK CAMERA", "group": "stations", "lat": 4.4915898204226234, "lon": -27.34910357921047, "alt_km": 403.1373776190039, "timestamp": "2025-12-09T18:55:16.039345+00:00", "meta": {"OBJECT_NAME": "HRC MONOBLOCK CAMERA", "OBJECT_ID": "1998-067XR", "EPOCH": "2025-12-09T12:00:01.915488", "MEAN_MOTION": 15.53794743, "ECCENTRICITY": 0.00038118, "INCLINATION": 51.629, "RA_OF_ASC_NODE": 157.6571, "ARG_OF_PERICENTER": 171.0105, "MEAN_ANOMALY": 189.0954, "EPHEMERIS_TYPE": 0, "CLASSIFICATION_TYPE": "U", "NORAD_CAT_ID": 66052, "ELEMENT_SET_NO": 999, "REV_AT_EPOCH": 833, "BSTAR": 0.00068667164, "MEAN_MOTION_DOT": 0.0004469, "MEAN_MOTION_DDOT": 0}, "tle": {"line1": "1 66052U 98067XR  25343.50002217  .00044690  00000+0  68667-3 0  9991", "line2": "2 66052  51.6290 157.6571 0003811 171.0105 189.0954 15.53794743  8332"}}, "geometry": {"type": "Point", "coordinates": [-27.34910357921047, 4.4915898204226234]}}, {"type": "Feature", "properties": {"norad_id": 66174, "name": "HTV-X1", "group": "stations", "lat": 45.3774577130313, "lon": -76.30401516844518, "alt_km": 412.8925485239488, "timestamp": "2025-12-09T18:55:16.039355+00:00", "meta": {"OBJECT_NAME": "HTV-X1", "OBJECT_ID": "2025-241A", "EPOCH": "2025-12-09T12:14:10.839552", "MEAN_MOTION": 15.49447168, "ECCENTRICITY": 0.00034, "INCLINATION": 51.631, "RA_OF_ASC_NODE": 158.4724, "ARG_OF_PERICENTER": 223.8185, "MEAN_ANOMALY": 136.2534, "EPHEMERIS_TYPE": 0, "CLASSIFICATION_TYPE": "U", "NORAD_CAT_ID": 66174, "ELEMENT_SET_NO": 999, "REV_AT_EPOCH": 51, "BSTAR": 0.00026025969, "MEAN_MOTION_DOT": 0.00014141, "MEAN_MOTION_DDOT": 0}, "tle": {"line1": "1 66174U 25241A   25343.50984768  .00014141  00000+0  26026-3 0  9991", "line2": "2 66174  51.6310 158.4724 0003400 223.8185 136.2534 15.49447168   518"}}, "geometry": {"type": "Point", "coordinates": [-76.30401516844518, 45.3774577130313]}}, {"type": "Feature", "properties": {"norad_id": 66515, "name": "SZ-21 MODULE", "group": "stations", "lat": -8.177623353365885, "lon": 24.684481511713226, "alt_km": 382.67148055697453, "timestamp": "2025-12-09T18:55:16.039365+00:00", "meta": {"OBJECT_NAME": "SZ-21 MODULE", "OBJECT_ID": "2025-246C", "EPOCH": "2025-12-09T11:18:10.159488", "MEAN_MOTION": 15.62240002, "ECCENTRICITY": 0.0006286, "INCLINATION": 41.4772, "RA_OF_ASC_NODE": 35.9831, "ARG_OF_PERICENTER": 242.4237, "MEAN_ANOMALY": 117.5964, "EPHEMERIS_TYPE": 0, "CLASSIFICATION_TYPE": "U", "NORAD_CAT_ID": 66515, "ELEMENT_SET_NO": 999, "REV_AT_EPOCH": 393, "BSTAR": 0.00035876146, "MEAN_MOTION_DOT": 0.00032351, "MEAN_MOTION_DDOT": 0}, "tle": {"line1": "1 66515U 25246C   25343.47095092  .00032351  00000+0  35876-3 0  9990", "line2": "2 66515  41.4772  35.9831 0006286 242.4237 117.5964 15.62240002  3935"}}, "geometry": {"type": "Point", "coordinates": [24.684481511713226, -8.177623353365885]}}, {"type": "Feature", "properties": {"norad_id": 66645, "name": "SHENZHOU-22", "group": "stations", "lat": 37.039262132930936, "lon": 155.91597370466187, "alt_km": 386.3757451017482, "timestamp": "2025-12-09T18:55:16.039376+00:00", "meta": {"OBJECT_NAME": "SHENZHOU-22", "OBJECT_ID": "2025-272A", "EPOCH": "2025-12-09T13:49:14.456064", "MEAN_MOTION": 15.58965688, "ECCENTRICITY": 0.00089597, "INCLINATION": 41.4682, "RA_OF_ASC_NODE": 35.9133, "ARG_OF_PERICENTER": 5.1145, "MEAN_ANOMALY": 354.9784, "EPHEMERIS_TYPE": 0, "CLASSIFICATION_TYPE": "U", "NORAD_CAT_ID": 66645, "ELEMENT_SET_NO": 999, "REV_AT_EPOCH": 26300, "BSTAR": 0.00041052725, "MEAN_MOTION_DOT": 0.00032682, "MEAN_MOTION_DDOT": 0}, "tle": {"line1": "1 66645U 25272A   25343.57586176  .00032682  00000+0  41053-3 0  9993", "line2": "2 66645  41.4682  35.9133 0008959   5.1145 354.9784 15.58965688263007"}}, "geometry": {"type": "Point", "coordinates": [155.91597370466187, 37.039262132930936]}}, {"type": "Feature", "properties": {"norad_id": 66664, "name": "SOYUZ-MS 28", "group": "stations", "lat": 45.37745680611094, "lon": -76.30401272790023, "alt_km": 412.89254858495406, "timestamp": "2025-12-09T18:55:16.039385+00:00", "meta": {"OBJECT_NAME": "SOYUZ-MS 28", "OBJECT_ID": "2025-275A", "EPOCH": "2025-12-09T12:14:10.839552", "MEAN_MOTION": 15.49447168, "ECCENTRICITY": 0.00034, "INCLINATION": 51.631, "RA_OF_ASC_NODE": 158.4724, "ARG_OF_PERICENTER": 223.8185, "MEAN_ANOMALY": 136.2534, "EPHEMERIS_TYPE": 0, "CLASSIFICATION_TYPE": "U", "NORAD_CAT_ID": 66664, "ELEMENT_SET_NO": 999, "REV_AT_EPOCH": 128, "BSTAR": 0.00026025969, "MEAN_MOTION_DOT": 0.00014141, "MEAN_MOTION_DDOT": 0}, "tle": {"line1": "1 66664U 25275A   25343.50984768  .00014141  00000+0  26026-3 0  9992", "line2": "2 66664  51.6310 158.4724 0003400 223.8185 136.2534 15.49447168  1287"}}, "geometry": {"type": "Point", "coordinates": [-76.30401272790023, 45.37745680611094]}}, {"type": "Feature", "properties": {"norad_id": 66906, "name": "1998-067XS", "group": "stations", "lat": 34.17768070811906, "lon": -55.495228308588516, "alt_km": 409.7321995191551, "timestamp": "2025-12-09T18:55:16.039395+00:00", "meta": {"OBJECT_NAME": "1998-067XS", "OBJECT_ID": "1998-067XS", "EPOCH": "2025-12-09T12:09:24.113376", "MEAN_MOTION": 15.50312686, "ECCENTRICITY": 0.00039811, "INCLINATION": 51.63, "RA_OF_ASC_NODE": 158.4502, "ARG_OF_PERICENTER": 188.2752, "MEAN_ANOMALY": 171.8172, "EPHEMERIS_TYPE": 0, "CLASSIFICATION_TYPE": "U", "NORAD_CAT_ID": 66906, "ELEMENT_SET_NO": 999, "REV_AT_EPOCH": 111, "BSTAR": 0.00059211588, "MEAN_MOTION_DOT": 0.00033864, "MEAN_MOTION_DDOT": 0}, "tle": {"line1": "1 66906U 98067XS  25343.50652909  .00033864  00000+0  59212-3 0  9995", "line2": "2 66906  51.6300 158.4502 0003981 188.2752 171.8172 15.50312686  1110"}}, "geometry": {"type": "Point", "coordinates": [-55.495228308588516, 34.17768070811906]}}, {"type": "Feature", "properties": {"norad_id": 66907, "name": "1998-067XT", "group": "stations", "lat": 29.07592604086831, "lon": -49.10155408102832, "alt_km": 409.19782930249494, "timestamp": "2025-12-09T18:55:16.039407+00:00", "meta": {"OBJECT_NAME": "1998-067XT", "OBJECT_ID": "1998-067XT", "EPOCH": "2025-12-09T12:07:37.114752", "MEAN_MOTION": 15.50864429, "ECCENTRICITY": 0.00048036, "INCLINATION": 51.6307, "RA_OF_ASC_NODE": 158.4423, "ARG_OF_PERICENTER": 208.5081, "MEAN_ANOMALY": 151.5646, "EPHEMERIS_TYPE": 0, "CLASSIFICATION_TYPE": "U", "NORAD_CAT_ID": 66907, "ELEMENT_SET_NO": 999, "REV_AT_EPOCH": 111, "BSTAR": 0.0012921241, "MEAN_MOTION_DOT": 0.00076342, "MEAN_MOTION_DDOT": 0}, "tle": {"line1": "1 66907U 98067XT  25343.50529068  .00076342  00000+0  12921-2 0  9998", "line2": "2 66907  51.6307 158.4423 0004803 208.5081 151.5646 15.50864429  1113"}}, "geometry": {"type": "Point", "coordinates": [-49.10155408102832, 29.07592604086831]}}, {"type": "Feature", "properties": {"norad_id": 66908, "name": "1998-067XU", "group": "stations", "lat": 28.24381897592528, "lon": -48.15474016075558, "alt_km": 409.00635274145316, "timestamp": "2025-12-09T18:55:16.039420+00:00", "meta": {"OBJECT_NAME": "1998-067XU", "OBJECT_ID": "1998-067XU", "EPOCH": "2025-12-09T15:12:54.016992", "MEAN_MOTION": 15.50928353, "ECCENTRICITY": 0.00050029, "INCLINATION": 51.6301, "RA_OF_ASC_NODE": 157.8011, "ARG_OF_PERICENTER": 207.486, "MEAN_ANOMALY": 152.5865, "EPHEMERIS_TYPE": 0, "CLASSIFICATION_TYPE": "U", "NORAD_CAT_ID": 66908, "ELEMENT_SET_NO": 999, "REV_AT_EPOCH": 113, "BSTAR": 0.0012603324, "MEAN_MOTION_DOT": 0.00074609, "MEAN_MOTION_DDOT": 0}, "tle": {"line1": "1 66908U 98067XU  25343.63395853  .00074609  00000+0  12603-2 0  9997", "line2": "2 66908  51.6301 157.8011 0005002 207.4860 152.5865 15.50928353  1132"}}, "geometry": {"type": "Point", "coordinates": [-48.15474016075558, 28.24381897592528]}}, {"type": "Feature", "properties": {"norad_id": 66909, "name": "SILVERSAT", "group": "stations", "lat": 27.53211409766038, "lon": -47.36169683664346, "alt_km": 408.9314590222739, "timestamp": "2025-12-09T18:55:16.039430+00:00", "meta": {"OBJECT_NAME": "SILVERSAT", "OBJECT_ID": "1998-067XV", "EPOCH": "2025-12-09T15:12:39.386016", "MEAN_MOTION": 15.5102294, "ECCENTRICITY": 0.00048745, "INCLINATION": 51.6303, "RA_OF_ASC_NODE": 157.7998, "ARG_OF_PERICENTER": 209.5362, "MEAN_ANOMALY": 150.5352, "EPHEMERIS_TYPE": 0, "CLASSIFICATION_TYPE": "U", "NORAD_CAT_ID": 66909, "ELEMENT_SET_NO": 999, "REV_AT_EPOCH": 113, "BSTAR": 0.0013732623, "MEAN_MOTION_DOT": 0.00081682, "MEAN_MOTION_DDOT": 0}, "tle": {"line1": "1 66909U 98067XV  25343.63378919  .00081682  00000+0  13733-2 0  9996", "line2": "2 66909  51.6303 157.7998 0004874 209.5362 150.5352 15.51022940  1131"}}, "geometry": {"type": "Point", "coordinates": [-47.36169683664346, 27.53211409766038]}}, {"type": "Feature", "properties": {"norad_id": 66910, "name": "1998-067XW", "group": "stations", "lat": 22.663506831759992, "lon": -42.30278060937071, "alt_km": 407.5456284710035, "timestamp": "2025-12-09T18:55:16.039442+00:00", "meta": {"OBJECT_NAME": "1998-067XW", "OBJECT_ID": "1998-067XW", "EPOCH": "2025-12-08T22:10:28.285536", "MEAN_MOTION": 15.51111527, "ECCENTRICITY": 0.0005924, "INCLINATION": 51.6296, "RA_OF_ASC_NODE": 161.31, "ARG_OF_PERICENTER": 189.6176, "MEAN_ANOMALY": 170.4701, "EPHEMERIS_TYPE": 0, "CLASSIFICATION_TYPE": "U", "NORAD_CAT_ID": 66910, "ELEMENT_SET_NO": 999, "REV_AT_EPOCH": 102, "BSTAR": 0.0011826614, "MEAN_MOTION_DOT": 0.00070418, "MEAN_MOTION_DDOT": 0}, "tle": {"line1": "1 66910U 98067XW  25342.92393849  .00070418  00000+0  11827-2 0  9995", "line2": "2 66910  51.6296 161.3100 0005924 189.6176 170.4701 15.51111527  1025"}}, "geometry": {"type": "Point", "coordinates": [-42.30278060937071, 22.663506831759992]}}]}